CCSDS_OMM_VERS = 2.0
CREATION_DATE  = 
ORIGINATOR     = 

OBJECT_NAME    = STARLINK-36483
OBJECT_ID      = 2026-002AB
CENTER_NAME    = EARTH
REF_FRAME      = TEME
TIME_SYSTEM    = UTC
MEAN_ELEMENT_THEORY = SGP/SGP4

EPOCH          = 2026-01-21T12:00:01.999296
MEAN_MOTION    = 15.74990665
ECCENTRICITY   = .0001738
INCLINATION    = 42.9988
RA_OF_ASC_NODE = 235.9950
ARG_OF_PERICENTER = 258.8554
MEAN_ANOMALY   = 92.6715

EPHEMERIS_TYPE = 0
CLASSIFICATION_TYPE = U
NORAD_CAT_ID   = 67330
ELEMENT_SET_NO = 999
REV_AT_EPOCH   = 398
BSTAR          = .95273E-3
MEAN_MOTION_DOT = .148154E-2
MEAN_MOTION_DDOT = 0

CCSDS_OMM_VERS = 2.0
CREATION_DATE  = 
ORIGINATOR     = 

OBJECT_NAME    = STARLINK-36494
OBJECT_ID      = 2026-002AC
CENTER_NAME    = EARTH
REF_FRAME      = TEME
TIME_SYSTEM    = UTC
MEAN_ELEMENT_THEORY = SGP/SGP4

EPOCH          = 2026-01-21T12:00:01.999296
MEAN_MOTION    = 15.74981008
ECCENTRICITY   = .0001683
INCLINATION    = 42.9987
RA_OF_ASC_NODE = 236.0091
ARG_OF_PERICENTER = 261.9120
MEAN_ANOMALY   = 83.8720

EPHEMERIS_TYPE = 0
CLASSIFICATION_TYPE = U
NORAD_CAT_ID   = 67331
ELEMENT_SET_NO = 999
REV_AT_EPOCH   = 398
BSTAR          = .7639E-3
MEAN_MOTION_DOT = .118222E-2
MEAN_MOTION_DDOT = 0

CCSDS_OMM_VERS = 2.0
CREATION_DATE  = 
ORIGINATOR     = 

OBJECT_NAME    = STARLINK-36492
OBJECT_ID      = 2026-002AD
CENTER_NAME    = EARTH
REF_FRAME      = TEME
TIME_SYSTEM    = UTC
MEAN_ELEMENT_THEORY = SGP/SGP4

EPOCH          = 2026-01-21T12:00:01.999296
MEAN_MOTION    = 15.75001107
ECCENTRICITY   = .0001696
INCLINATION    = 42.9991
RA_OF_ASC_NODE = 235.9995
ARG_OF_PERICENTER = 262.6639
MEAN_ANOMALY   = 86.9474

EPHEMERIS_TYPE = 0
CLASSIFICATION_TYPE = U
NORAD_CAT_ID   = 67332
ELEMENT_SET_NO = 999
REV_AT_EPOCH   = 398
BSTAR          = .68413E-3
MEAN_MOTION_DOT = .105762E-2
MEAN_MOTION_DDOT = 0

CCSDS_OMM_VERS = 2.0
CREATION_DATE  = 
ORIGINATOR     = 

OBJECT_NAME    = STARLINK-36427
OBJECT_ID      = 2026-002AE
CENTER_NAME    = EARTH
REF_FRAME      = TEME
TIME_SYSTEM    = UTC
MEAN_ELEMENT_THEORY = SGP/SGP4

EPOCH          = 2026-01-21T12:00:01.999296
MEAN_MOTION    = 15.72368783
ECCENTRICITY   = .0001602
INCLINATION    = 42.9983
RA_OF_ASC_NODE = 235.3621
ARG_OF_PERICENTER = 253.8270
MEAN_ANOMALY   = 347.6289

EPHEMERIS_TYPE = 0
CLASSIFICATION_TYPE = U
NORAD_CAT_ID   = 67333
ELEMENT_SET_NO = 999
REV_AT_EPOCH   = 389
BSTAR          = -.16043E-1
MEAN_MOTION_DOT = -.1945522E-1
MEAN_MOTION_DDOT = 0

CCSDS_OMM_VERS = 2.0
CREATION_DATE  = 
ORIGINATOR     = 

OBJECT_NAME    = STARLINK-35343
OBJECT_ID      = 2026-003A
CENTER_NAME    = EARTH
REF_FRAME      = TEME
TIME_SYSTEM    = UTC
MEAN_ELEMENT_THEORY = SGP/SGP4

EPOCH          = 2026-01-21T12:00:01.999296
MEAN_MOTION    = 15.81188497
ECCENTRICITY   = .0001179
INCLINATION    = 42.9982
RA_OF_ASC_NODE = 139.3597
ARG_OF_PERICENTER = 276.7322
MEAN_ANOMALY   = 337.2301

EPHEMERIS_TYPE = 0
CLASSIFICATION_TYPE = U
NORAD_CAT_ID   = 67334
ELEMENT_SET_NO = 999
REV_AT_EPOCH   = 302
BSTAR          = -.82396E-2
MEAN_MOTION_DOT = -.1475483E-1
MEAN_MOTION_DDOT = 0

CCSDS_OMM_VERS = 2.0
CREATION_DATE  = 
ORIGINATOR     = 

OBJECT_NAME    = STARLINK-36486
OBJECT_ID      = 2026-003B
CENTER_NAME    = EARTH
REF_FRAME      = TEME
TIME_SYSTEM    = UTC
MEAN_ELEMENT_THEORY = SGP/SGP4

EPOCH          = 2026-01-21T12:00:01.999296
MEAN_MOTION    = 15.81184790
ECCENTRICITY   = .0001315
INCLINATION    = 42.9982
RA_OF_ASC_NODE = 139.3550
ARG_OF_PERICENTER = 277.1244
MEAN_ANOMALY   = 338.7561

EPHEMERIS_TYPE = 0
CLASSIFICATION_TYPE = U
NORAD_CAT_ID   = 67335
ELEMENT_SET_NO = 999
REV_AT_EPOCH   = 308
BSTAR          = -.80891E-2
MEAN_MOTION_DOT = -.1451502E-1
MEAN_MOTION_DDOT = 0

CCSDS_OMM_VERS = 2.0
CREATION_DATE  = 
ORIGINATOR     = 

OBJECT_NAME    = STARLINK-36480
OBJECT_ID      = 2026-003C
CENTER_NAME    = EARTH
REF_FRAME      = TEME
TIME_SYSTEM    = UTC
MEAN_ELEMENT_THEORY = SGP/SGP4

EPOCH          = 2026-01-21T12:00:01.999296
MEAN_MOTION    = 15.81234916
ECCENTRICITY   = .0001535
INCLINATION    = 42.9982
RA_OF_ASC_NODE = 139.3495
ARG_OF_PERICENTER = 274.0727
MEAN_ANOMALY   = 344.0049

EPHEMERIS_TYPE = 0
CLASSIFICATION_TYPE = U
NORAD_CAT_ID   = 67336
ELEMENT_SET_NO = 999
REV_AT_EPOCH   = 308
BSTAR          = -.85412E-2
MEAN_MOTION_DOT = -.1526114E-1
MEAN_MOTION_DDOT = 0

CCSDS_OMM_VERS = 2.0
CREATION_DATE  = 
ORIGINATOR     = 

OBJECT_NAME    = STARLINK-36410
OBJECT_ID      = 2026-003D
CENTER_NAME    = EARTH
REF_FRAME      = TEME
TIME_SYSTEM    = UTC
MEAN_ELEMENT_THEORY = SGP/SGP4

EPOCH          = 2026-01-21T12:00:01.999296
MEAN_MOTION    = 15.81161769
ECCENTRICITY   = .0001604
INCLINATION    = 42.9982
RA_OF_ASC_NODE = 139.3435
ARG_OF_PERICENTER = 272.4881
MEAN_ANOMALY   = 347.8992

EPHEMERIS_TYPE = 0
CLASSIFICATION_TYPE = U
NORAD_CAT_ID   = 67337
ELEMENT_SET_NO = 999
REV_AT_EPOCH   = 308
BSTAR          = -.83691E-2
MEAN_MOTION_DOT = -.1494562E-1
MEAN_MOTION_DDOT = 0

CCSDS_OMM_VERS = 2.0
CREATION_DATE  = 
ORIGINATOR     = 

OBJECT_NAME    = STARLINK-36413
OBJECT_ID      = 2026-003E
CENTER_NAME    = EARTH
REF_FRAME      = TEME
TIME_SYSTEM    = UTC
MEAN_ELEMENT_THEORY = SGP/SGP4

EPOCH          = 2026-01-21T12:00:01.999296
MEAN_MOTION    = 15.81149560
ECCENTRICITY   = .0001301
INCLINATION    = 42.9982
RA_OF_ASC_NODE = 139.3382
ARG_OF_PERICENTER = 274.1537
MEAN_ANOMALY   = 348.3948

EPHEMERIS_TYPE = 0
CLASSIFICATION_TYPE = U
NORAD_CAT_ID   = 67338
ELEMENT_SET_NO = 999
REV_AT_EPOCH   = 308
BSTAR          = -.84462E-2
MEAN_MOTION_DOT = -.15057E-1
MEAN_MOTION_DDOT = 0

CCSDS_OMM_VERS = 2.0
CREATION_DATE  = 
ORIGINATOR     = 

OBJECT_NAME    = STARLINK-36451
OBJECT_ID      = 2026-003F
CENTER_NAME    = EARTH
REF_FRAME      = TEME
TIME_SYSTEM    = UTC
MEAN_ELEMENT_THEORY = SGP/SGP4

EPOCH          = 2026-01-21T12:00:01.999296
MEAN_MOTION    = 15.81130128
ECCENTRICITY   = .0001391
INCLINATION    = 42.9981
RA_OF_ASC_NODE = 139.3322
ARG_OF_PERICENTER = 270.2264
MEAN_ANOMALY   = 354.5298

EPHEMERIS_TYPE = 0
CLASSIFICATION_TYPE = U
NORAD_CAT_ID   = 67339
ELEMENT_SET_NO = 999
REV_AT_EPOCH   = 308
BSTAR          = -.84998E-2
MEAN_MOTION_DOT = -.1512957E-1
MEAN_MOTION_DDOT = 0

CCSDS_OMM_VERS = 2.0
CREATION_DATE  = 
ORIGINATOR     = 

OBJECT_NAME    = STARLINK-36339
OBJECT_ID      = 2026-003G
CENTER_NAME    = EARTH
REF_FRAME      = TEME
TIME_SYSTEM    = UTC
MEAN_ELEMENT_THEORY = SGP/SGP4

EPOCH          = 2026-01-21T12:00:01.999296
MEAN_MOTION    = 15.81074444
ECCENTRICITY   = .0001456
INCLINATION    = 42.9980
RA_OF_ASC_NODE = 139.3265
ARG_OF_PERICENTER = 272.7495
MEAN_ANOMALY   = 354.4801

EPHEMERIS_TYPE = 0
CLASSIFICATION_TYPE = U
NORAD_CAT_ID   = 67340
ELEMENT_SET_NO = 999
REV_AT_EPOCH   = 308
BSTAR          = -.85559E-2
MEAN_MOTION_DOT = -.1518285E-1
MEAN_MOTION_DDOT = 0

CCSDS_OMM_VERS = 2.0
CREATION_DATE  = 
ORIGINATOR     = 

OBJECT_NAME    = STARLINK-36453
OBJECT_ID      = 2026-003H
CENTER_NAME    = EARTH
REF_FRAME      = TEME
TIME_SYSTEM    = UTC
MEAN_ELEMENT_THEORY = SGP/SGP4

EPOCH          = 2026-01-21T12:00:01.999296
MEAN_MOTION    = 15.81034627
ECCENTRICITY   = .0001634
INCLINATION    = 42.9983
RA_OF_ASC_NODE = 139.3199
ARG_OF_PERICENTER = 272.2740
MEAN_ANOMALY   = 357.3633

EPHEMERIS_TYPE = 0
CLASSIFICATION_TYPE = U
NORAD_CAT_ID   = 67341
ELEMENT_SET_NO = 999
REV_AT_EPOCH   = 308
BSTAR          = -.86688E-2
MEAN_MOTION_DOT = -.1533477E-1
MEAN_MOTION_DDOT = 0

