STARLINK-36483          
1 67330U 26002AB  26021.50002314  .00148154  00000+0  95273-3 0  9996
2 67330  42.9988 235.9950 0001738 258.8554  92.6715 15.74990665  3982
STARLINK-36494          
1 67331U 26002AC  26021.50002314  .00118222  00000+0  76390-3 0  9999
2 67331  42.9987 236.0091 0001683 261.9120  83.8720 15.74981008  3982
STARLINK-36492          
1 67332U 26002AD  26021.50002314  .00105762  00000+0  68413-3 0  9992
2 67332  42.9991 235.9995 0001696 262.6639  86.9474 15.75001107  3980
STARLINK-36427          
1 67333U 26002AE  26021.50002314 -.01945522  00000+0 -16043-1 0  9992
2 67333  42.9983 235.3621 0001602 253.8270 347.6289 15.72368783  3896
STARLINK-35343          
1 67334U 26003A   26021.50002314 -.01475483  00000+0 -82396-2 0  9993
2 67334  42.9982 139.3597 0001179 276.7322 337.2301 15.81188497  3029
STARLINK-36486          
1 67335U 26003B   26021.50002314 -.01451502  00000+0 -80891-2 0  9998
2 67335  42.9982 139.3550 0001315 277.1244 338.7561 15.81184790  3081
STARLINK-36480          
1 67336U 26003C   26021.50002314 -.01526114  00000+0 -85412-2 0  9995
2 67336  42.9982 139.3495 0001535 274.0727 344.0049 15.81234916  3083
STARLINK-36410          
1 67337U 26003D   26021.50002314 -.01494562  00000+0 -83691-2 0  9994
2 67337  42.9982 139.3435 0001604 272.4881 347.8992 15.81161769  3081
STARLINK-36413          
1 67338U 26003E   26021.50002314 -.01505700  00000+0 -84462-2 0  9999
2 67338  42.9982 139.3382 0001301 274.1537 348.3948 15.81149560  3086
STARLINK-36451          
1 67339U 26003F   26021.50002314 -.01512957  00000+0 -84998-2 0  9996
2 67339  42.9981 139.3322 0001391 270.2264 354.5298 15.81130128  3080
STARLINK-36339          
1 67340U 26003G   26021.50002314 -.01518285  00000+0 -85559-2 0  9992
2 67340  42.9980 139.3265 0001456 272.7495 354.4801 15.81074444  3089
STARLINK-36453          
1 67341U 26003H   26021.50002314 -.01533477  00000+0 -86688-2 0  9997
2 67341  42.9983 139.3199 0001634 272.2740 357.3633 15.81034627  3089
